{"type": "FeatureCollection", "features": [ {"type": "Feature", "properties": {"norad_id": 28659, "name": "DIRECTV 8", "group": "intelsat", "lat": -0.027529522946383212, "lon": -86.73440081638927, "alt_km": 35772.77976367886, "timestamp": "2025-12-10T20:49:52.228361+00:00", "meta": {"OBJECT_NAME": "DIRECTV 8", "OBJECT_ID": "2005-019A", "EPOCH": "2025-12-10T07:31:28.465824", "MEAN_MOTION": 1.00272201, "ECCENTRICITY": 0.0003149, "INCLINATION": 0.0136, "RA_OF_ASC_NODE": 25.1148, "ARG_OF_PERICENTER": 239.1282, "MEAN_ANOMALY": 168.8738, "EPHEMERIS_TYPE": 0, "CLASSIFICATION_TYPE": "U", "NORAD_CAT_ID": 28659, "ELEMENT_SET_NO": 999, "REV_AT_EPOCH": 7517, "BSTAR": 0, "MEAN_MOTION_DOT": 5e-08, "MEAN_MOTION_DDOT": 0}, "tle": {"line1": "1 28659U 05019A   25344.31352391  .00000005  00000+0  00000+0 0  9993", "line2": "2 28659   0.0136  25.1148 0003149 239.1282 168.8738  1.00272201 75173"}}, "geometry": {"type": "Point", "coordinates": [-86.73440081638927, -0.027529522946383212]}}, {"type": "Feature", "properties": {"norad_id": 28702, "name": "GALAXY 28 (G-28)", "group": "intelsat", "lat": -1.9074951704489778, "lon": -56.39586497797882, "alt_km": 35778.036054379045, "timestamp": "2025-12-10T20:49:52.228389+00:00", "meta": {"OBJECT_NAME": "GALAXY 28 (G-28)", "OBJECT_ID": "2005-022A", "EPOCH": "2025-12-10T07:19:38.654400", "MEAN_MOTION": 1.0027093, "ECCENTRICITY": 0.00027018, "INCLINATION": 2.8124, "RA_OF_ASC_NODE": 81.3102, "ARG_OF_PERICENTER": 180.8812, "MEAN_ANOMALY": 198.3166, "EPHEMERIS_TYPE": 0, "CLASSIFICATION_TYPE": "U", "NORAD_CAT_ID": 28702, "ELEMENT_SET_NO": 999, "REV_AT_EPOCH": 5008, "BSTAR": 0, "MEAN_MOTION_DOT": -1.84e-06, "MEAN_MOTION_DDOT": 0}, "tle": {"line1": "1 28702U 05022A   25344.30530850 -.00000184  00000+0  00000+0 0  9992", "line2": "2 28702   2.8124  81.3102 0002701 180.8812 198.3166  1.00270930 50080"}}, "geometry": {"type": "Point", "coordinates": [-56.39586497797882, -1.9074951704489778]}}, {"type": "Feature", "properties": {"norad_id": 29236, "name": "GALAXY 16 (G-16)", "group": "intelsat", "lat": -0.016343925210942353, "lon": -66.68697838843477, "alt_km": 35776.83658599978, "timestamp": "2025-12-10T20:49:52.228407+00:00", "meta": {"OBJECT_NAME": "GALAXY 16 (G-16)", "OBJECT_ID": "2006-023A", "EPOCH": "2025-12-10T10:30:13.310784", "MEAN_MOTION": 1.00272213, "ECCENTRICITY": 0.00027694, "INCLINATION": 0.0363, "RA_OF_ASC_NODE": 149.7861, "ARG_OF_PERICENTER": 104.7073, "MEAN_ANOMALY": 243.4661, "EPHEMERIS_TYPE": 0, "CLASSIFICATION_TYPE": "U", "NORAD_CAT_ID": 29236, "ELEMENT_SET_NO": 999, "REV_AT_EPOCH": 7108, "BSTAR": 0, "MEAN_MOTION_DOT": -1.23e-06, "MEAN_MOTION_DDOT": 0}, "tle": {"line1": "1 29236U 06023A   25344.43765406 -.00000123  00000+0  00000+0 0  9991", "line2": "2 29236   0.0363 149.7861 0002769 104.7073 243.4661  1.00272213 71088"}}, "geometry": {"type": "Point", "coordinates": [-66.68697838843477, -0.016343925210942353]}}, {"type": "Feature", "properties": {"norad_id": 29494, "name": "DIRECTV 9S", "group": "intelsat", "lat": -0.9202270258616959, "lon": -68.9056921877005, "alt_km": 35774.69087610119, "timestamp": "2025-12-10T20:49:52.228420+00:00", "meta": {"OBJECT_NAME": "DIRECTV 9S", "OBJECT_ID": "2006-043A", "EPOCH": "2025-12-10T08:50:38.677344", "MEAN_MOTION": 1.00271482, "ECCENTRICITY": 0.00031271, "INCLINATION": 1.9343, "RA_OF_ASC_NODE": 83.234, "ARG_OF_PERICENTER": 179.142, "MEAN_ANOMALY": 208.4169, "EPHEMERIS_TYPE": 0, "CLASSIFICATION_TYPE": "U", "NORAD_CAT_ID": 29494, "ELEMENT_SET_NO": 999, "REV_AT_EPOCH": 4949, "BSTAR": 0, "MEAN_MOTION_DOT": -1.1e-06, "MEAN_MOTION_DDOT": 0}, "tle": {"line1": "1 29494U 06043A   25344.36850321 -.00000110  00000+0  00000+0 0  9998", "line2": "2 29494   1.9343  83.2340 0003127 179.1420 208.4169  1.00271482 49498"}}, "geometry": {"type": "Point", "coordinates": [-68.9056921877005, -0.9202270258616959]}}, {"type": "Feature", "properties": {"norad_id": 31307, "name": "GALAXY 17 (G-17)", "group": "intelsat", "lat": -1.7783743000845351, "lon": -52.64972839537097, "alt_km": 35774.24904101524, "timestamp": "2025-12-10T20:49:52.228431+00:00", "meta": {"OBJECT_NAME": "GALAXY 17 (G-17)", "OBJECT_ID": "2007-016B", "EPOCH": "2025-12-10T05:31:38.713152", "MEAN_MOTION": 1.00272548, "ECCENTRICITY": 0.00060079, "INCLINATION": 2.4939, "RA_OF_ASC_NODE": 82.3112, "ARG_OF_PERICENTER": 162.8235, "MEAN_ANOMALY": 191.995, "EPHEMERIS_TYPE": 0, "CLASSIFICATION_TYPE": "U", "NORAD_CAT_ID": 31307, "ELEMENT_SET_NO": 999, "REV_AT_EPOCH": 6790, "BSTAR": 0, "MEAN_MOTION_DOT": -2.03e-06, "MEAN_MOTION_DDOT": 0}, "tle": {"line1": "1 31307U 07016B   25344.23030918 -.00000203  00000+0  00000+0 0  9996", "line2": "2 31307   2.4939  82.3112 0006007 162.8235 191.9950  1.00272548 67905"}}, "geometry": {"type": "Point", "coordinates": [-52.64972839537097, -1.7783743000845351]}}, {"type": "Feature", "properties": {"norad_id": 31862, "name": "DIRECTV 10", "group": "intelsat", "lat": -0.0005777345328046487, "lon": -70.47672044614177, "alt_km": 35785.65830305629, "timestamp": "2025-12-10T20:49:52.228443+00:00", "meta": {"OBJECT_NAME": "DIRECTV 10", "OBJECT_ID": "2007-032A", "EPOCH": "2025-12-10T08:12:19.171584", "MEAN_MOTION": 1.00271553, "ECCENTRICITY": 3.853e-05, "INCLINATION": 0.0087, "RA_OF_ASC_NODE": 98.9872, "ARG_OF_PERICENTER": 118.0776, "MEAN_ANOMALY": 242.5518, "EPHEMERIS_TYPE": 0, "CLASSIFICATION_TYPE": "U", "NORAD_CAT_ID": 31862, "ELEMENT_SET_NO": 999, "REV_AT_EPOCH": 4370, "BSTAR": 0, "MEAN_MOTION_DOT": -9.9e-07, "MEAN_MOTION_DDOT": 0}, "tle": {"line1": "1 31862U 07032A   25344.34188856 -.00000099  00000+0  00000+0 0  9990", "line2": "2 31862   0.0087  98.9872 0000385 118.0776 242.5518  1.00271553 43701"}}, "geometry": {"type": "Point", "coordinates": [-70.47672044614177, -0.0005777345328046487]}}, {"type": "Feature", "properties": {"norad_id": 32253, "name": "INTELSAT 11 (IS-11)", "group": "intelsat", "lat": -0.3010235081326353, "lon": -93.74812059152, "alt_km": 36096.517337002195, "timestamp": "2025-12-10T20:49:52.228455+00:00", "meta": {"OBJECT_NAME": "INTELSAT 11 (IS-11)", "OBJECT_ID": "2007-044B", "EPOCH": "2025-12-10T08:50:38.825088", "MEAN_MOTION": 0.99047863, "ECCENTRICITY": 0.00090387, "INCLINATION": 3.0743, "RA_OF_ASC_NODE": 81.0014, "ARG_OF_PERICENTER": 165.0456, "MEAN_ANOMALY": 202.0786, "EPHEMERIS_TYPE": 0, "CLASSIFICATION_TYPE": "U", "NORAD_CAT_ID": 32253, "ELEMENT_SET_NO": 999, "REV_AT_EPOCH": 6658, "BSTAR": 0, "MEAN_MOTION_DOT": 7.8e-07, "MEAN_MOTION_DDOT": 0}, "tle": {"line1": "1 32253U 07044B   25344.36850492  .00000078  00000+0  00000+0 0  9998", "line2": "2 32253   3.0743  81.0014 0009038 165.0456 202.0786  0.99047863 66581"}}, "geometry": {"type": "Point", "coordinates": [-93.74812059152, -0.3010235081326353]}}, {"type": "Feature", "properties": {"norad_id": 32388, "name": "HORIZONS-2", "group": "intelsat", "lat": -1.7545064526095657, "lon": -41.45911851642927, "alt_km": 35772.5983883019, "timestamp": "2025-12-10T20:49:52.228467+00:00", "meta": {"OBJECT_NAME": "HORIZONS-2", "OBJECT_ID": "2007-063B", "EPOCH": "2025-12-10T04:15:38.659392", "MEAN_MOTION": 1.00270369, "ECCENTRICITY": 0.00049966, "INCLINATION": 2.1151, "RA_OF_ASC_NODE": 82.986, "ARG_OF_PERICENTER": 187.7367, "MEAN_ANOMALY": 158.5607, "EPHEMERIS_TYPE": 0, "CLASSIFICATION_TYPE": "U", "NORAD_CAT_ID": 32388, "ELEMENT_SET_NO": 999, "REV_AT_EPOCH": 6591, "BSTAR": 0, "MEAN_MOTION_DOT": -2.5e-06, "MEAN_MOTION_DDOT": 0}, "tle": {"line1": "1 32388U 07063B   25344.17753078 -.00000250  00000+0  00000+0 0  9992", "line2": "2 32388   2.1151  82.9860 0004996 187.7367 158.5607  1.00270369 65917"}}, "geometry": {"type": "Point", "coordinates": [-41.45911851642927, -1.7545064526095657]}}, {"type": "Feature", "properties": {"norad_id": 32729, "name": "DIRECTV 11", "group": "intelsat", "lat": 0.0002202362380687565, "lon": -66.88876098267205, "alt_km": 35786.718224995864, "timestamp": "2025-12-10T20:49:52.228479+00:00", "meta": {"OBJECT_NAME": "DIRECTV 11", "OBJECT_ID": "2008-013A", "EPOCH": "2025-12-10T10:29:59.969760", "MEAN_MOTION": 1.00271438, "ECCENTRICITY": 3.933e-05, "INCLINATION": 0.018, "RA_OF_ASC_NODE": 174.7385, "ARG_OF_PERICENTER": 9.6314, "MEAN_ANOMALY": 313.349, "EPHEMERIS_TYPE": 0, "CLASSIFICATION_TYPE": "U", "NORAD_CAT_ID": 32729, "ELEMENT_SET_NO": 999, "REV_AT_EPOCH": 4370, "BSTAR": 0, "MEAN_MOTION_DOT": -1.22e-06, "MEAN_MOTION_DDOT": 0}, "tle": {"line1": "1 32729U 08013A   25344.43749965 -.00000122  00000+0  00000+0 0  9994", "line2": "2 32729   0.0180 174.7385 0000393   9.6314 313.3490  1.00271438 43700"}}, "geometry": {"type": "Point", "coordinates": [-66.88876098267205, 0.0002202362380687565]}}, {"type": "Feature", "properties": {"norad_id": 32951, "name": "GALAXY 18 (G-18)", "group": "intelsat", "lat": -0.025593811496599887, "lon": -90.69698503228922, "alt_km": 35772.56865470609, "timestamp": "2025-12-10T20:49:52.228492+00:00", "meta": {"OBJECT_NAME": "GALAXY 18 (G-18)", "OBJECT_ID": "2008-024A", "EPOCH": "2025-12-10T11:00:38.718144", "MEAN_MOTION": 1.00272933, "ECCENTRICITY": 0.0003129, "INCLINATION": 0.0166, "RA_OF_ASC_NODE": 310.7624, "ARG_OF_PERICENTER": 312.505, "MEAN_ANOMALY": 218.3239, "EPHEMERIS_TYPE": 0, "CLASSIFICATION_TYPE": "U", "NORAD_CAT_ID": 32951, "ELEMENT_SET_NO": 999, "REV_AT_EPOCH": 4396, "BSTAR": 0, "MEAN_MOTION_DOT": 2.9e-07, "MEAN_MOTION_DDOT": 0}, "tle": {"line1": "1 32951U 08024A   25344.45878146  .00000029  00000+0  00000+0 0  9994", "line2": "2 32951   0.0166 310.7624 0003129 312.5050 218.3239  1.00272933 43966"}}, "geometry": {"type": "Point", "coordinates": [-90.69698503228922, -0.025593811496599887]}}]}